{
    "links": {
        "self": "http://www.neowsapp.com/rest/v1/neo/3689272?api_key=iIulBulltgU6a56xZRHN4H3l9WmuAYTsLGpBGhQ2"
    },
    "id": "3689272",
    "neo_reference_id": "3689272",
    "name": "(2014 ST1)",
    "designation": "2014 ST1",
    "nasa_jpl_url": "http://ssd.jpl.nasa.gov/sbdb.cgi?sstr=3689272",
    "absolute_magnitude_h": 26.0,
    "estimated_diameter": {
        "kilometers": {
            "estimated_diameter_min": 0.0167708462,
            "estimated_diameter_max": 0.0375007522
        },
        "meters": {
            "estimated_diameter_min": 16.7708462163,
            "estimated_diameter_max": 37.5007521798
        },
        "miles": {
            "estimated_diameter_min": 0.0104209175,
            "estimated_diameter_max": 0.0233018799
        },
        "feet": {
            "estimated_diameter_min": 55.0224631002,
            "estimated_diameter_max": 123.0339677816
        }
    },
    "is_potentially_hazardous_asteroid": false,
    "close_approach_data": [
        {
            "close_approach_date": "2014-09-15",
            "close_approach_date_full": "2014-Sep-15 17:14",
            "epoch_date_close_approach": 1410801240000,
            "relative_velocity": {
                "kilometers_per_second": "7.7840346418",
                "kilometers_per_hour": "28022.524710648",
                "miles_per_hour": "17412.1070903468"
            },
            "miss_distance": {
                "astronomical": "0.0265133119",
                "lunar": "10.3136783291",
                "kilometers": "3966334.986885653",
                "miles": "2464566.2773938914"
            },
            "orbiting_body": "Earth"
        },
        {
            "close_approach_date": "2016-09-30",
            "close_approach_date_full": "2016-Sep-30 18:01",
            "epoch_date_close_approach": 1475258460000,
            "relative_velocity": {
                "kilometers_per_second": "4.0229965139",
                "kilometers_per_hour": "14482.7874500095",
                "miles_per_hour": "8999.040901924"
            },
            "miss_distance": {
                "astronomical": "1.72542061",
                "lunar": "671.18861729",
                "kilometers": "258119248.1101007",
                "miles": "160387863.49156166"
            },
            "orbiting_body": "Juptr"
        }
    ],
    "orbital_data": {
        "orbit_id": "7",
        "orbit_determination_date": "2017-04-06 08:38:38",
        "first_observation_date": "2014-09-19",
        "last_observation_date": "2014-10-01",
        "data_arc_in_days": 12,
        "observations_used": 36,
        "orbit_uncertainty": "8",
        "minimum_orbit_intersection": ".0263512",
        "jupiter_tisserand_invariant": "3.149",
        "epoch_osculation": "2456921.5",
        "eccentricity": ".5985955887495321",
        "semi_major_axis": "2.568900798282351",
        "inclination": "3.481553086257295",
        "ascending_node_longitude": "178.3419619435356",
        "orbital_period": "1503.901620909143",
        "perihelion_distance": "1.031168112495384",
        "perihelion_argument": "172.5673002418908",
        "aphelion_distance": "4.106633484069317",
        "perihelion_time": "2456914.876841983530",
        "mean_anomaly": "1.585434082109582",
        "mean_motion": ".2393773601908693",
        "equinox": "J2000",
        "orbit_class": {
            "orbit_class_type": "AMO",
            "orbit_class_description": "Near-Earth asteroid orbits similar to that of 1221 Amor",
            "orbit_class_range": "1.017 AU < q (perihelion) < 1.3 AU"
        }
    },
    "is_sentry_object": false
}